{
  "type": "FeatureCollection",
  "features": [
    {"type":"Feature","properties":{"zip_code":"11226","city":"Brooklyn","state":"NY","bbl":"3050750001","ec_name":"PS 249","address":"18 Marlborough Road","borocode":"3","bin":"3116438","accessible":"N"},"geometry":{"type":"Point","coordinates":[-73.96648921670807,40.649708582993064]}},{"type":"Feature","properties":{"zip_code":"10460","city":"Bronx","state":"NY","bbl":"2039210030","ec_name":"PS 102","address":"1827 Archer Street","borocode":"2","bin":"2028640","accessible":"N"},"geometry":{"type":"Point","coordinates":[-73.86622748089125,40.838205858215275]}},{"type":"Feature","properties":{"zip_code":"11225","city":"Brooklyn","state":"NY","bbl":"3011880001","ec_name":"Clara Barton HS","address":"901 Classon Avenue","borocode":"3","bin":"3029702","accessible":"N"},"geometry":{"type":"Point","coordinates":[-73.96139358097575,40.6688589933076]}},{"type":"Feature","properties":{"zip_code":"10040","city":"New York","state":"NY","bbl":"1021600018","ec_name":"George Washington Educational Campus","address":"549 Audobon Avenue","borocode":"1","bin":"1076751","accessible":"N"},"geometry":{"type":"Point","coordinates":[-73.92619138163855,40.85559869189675]}},{"type":"Feature","properties":{"zip_code":"11217","city":"Brooklyn","state":"NY","bbl":"3020980013","ec_name":"Brooklyn Tech HS","address":"29 Ft Greene Place","borocode":"3","bin":"3058752","accessible":"Y"},"geometry":{"type":"Point","coordinates":[-73.97644081210666,40.688955817188834]}},{"type":"Feature","properties":{"zip_code":"10463","city":"Bronx","state":"NY","bbl":"2059180376","ec_name":"MS - HS 141","address":"660 W 237 Street","borocode":"2","bin":"2085870","accessible":"N"},"geometry":{"type":"Point","coordinates":[-73.91417582805788,40.88805858303743]}},{"type":"Feature","properties":{"zip_code":"11212","city":"Brooklyn","state":"NY","bbl":"3035200008","ec_name":"PS 327","address":"111 Bristol Street","borocode":"3","bin":"3081032","accessible":"N"},"geometry":{"type":"Point","coordinates":[-73.9117213739499,40.66795481413876]}},{"type":"Feature","properties":{"zip_code":"10025","city":"New York","state":"NY","bbl":"1012230005","ec_name":"IS 118","address":"154 W 93 Street","borocode":"1","bin":"1032522","accessible":"Y"},"geometry":{"type":"Point","coordinates":[-73.97097165235431,40.791461599835635]}},{"type":"Feature","properties":{"zip_code":"11232","city":"Brooklyn","state":"NY","bbl":"3007010001","ec_name":"PS 24","address":"427 38 Street","borocode":"3","bin":"3346119","accessible":"Y"},"geometry":{"type":"Point","coordinates":[-74.00453928492661,40.65280553248585]}},{"type":"Feature","properties":{"zip_code":"11215","city":"Brooklyn","state":"NY","bbl":"3010820001","ec_name":"John Jay Educational Campus","address":"237 7th Avenue","borocode":"3","bin":"3025510","accessible":"N"},"geometry":{"type":"Point","coordinates":[-73.97869546474965,40.66930777410636]}},{"type":"Feature","properties":{"zip_code":"10474","city":"Bronx","state":"NY","bbl":"2027630279","ec_name":"IS 201","address":"730 Bryant Avenue","borocode":"2","bin":"2006566","accessible":"N"},"geometry":{"type":"Point","coordinates":[-73.8853081324496,40.81586895931827]}},{"type":"Feature","properties":{"zip_code":"10023","city":"New York","state":"NY","bbl":"1021120058","ec_name":"IS 90","address":"21 Jumel Place","borocode":"1","bin":"1076741","accessible":"Y"},"geometry":{"type":"Point","coordinates":[-73.9357073749906,40.83935802569437]}},{"type":"Feature","properties":{"zip_code":"10457","city":"Bronx","state":"NY","bbl":"2029510032","ec_name":"PS 211","address":"1919 Prospect Avenue","borocode":"2","bin":"2094582","accessible":"N"},"geometry":{"type":"Point","coordinates":[-73.89046989887038,40.84375984151174]}},{"type":"Feature","properties":{"zip_code":"11237","city":"Brooklyn","state":"NY","bbl":"3032980001","ec_name":"IS 383","address":"1300 Greene Avenue","borocode":"3","bin":"3075413","accessible":"N"},"geometry":{"type":"Point","coordinates":[-73.91928775501131,40.697693632530274]}},{"type":"Feature","properties":{"zip_code":"10027","city":"New York","state":"NY","bbl":"1019640012","ec_name":"PS 125","address":"425 W 123 Street","borocode":"1","bin":"1059526","accessible":"Y"},"geometry":{"type":"Point","coordinates":[-73.95609685370634,40.81078944886271]}},{"type":"Feature","properties":{"zip_code":"10023","city":"New York","state":"NY","bbl":"1011570025","ec_name":"Martin Luther King Jr. HS","address":"122 Amsterdam Avenue","borocode":"1","bin":"1030343","accessible":"N"},"geometry":{"type":"Point","coordinates":[-73.98563038662456,40.774899959763246]}},{"type":"Feature","properties":{"zip_code":"10022","city":"New York","state":"NY","bbl":"1013300015","ec_name":"Midtown East Campus (PS 59)","address":"233 E 56 Street","borocode":"1","bin":"1038593","accessible":"Y"},"geometry":{"type":"Point","coordinates":[-73.9663563303682,40.75929963022644]}},{"type":"Feature","properties":{"zip_code":"10002","city":"New York","state":"NY","bbl":"1003010003","ec_name":"IS 131","address":"100 Hester Street","borocode":"1","bin":"1082489","accessible":"N"},"geometry":{"type":"Point","coordinates":[-73.99360201070182,40.71623837083559]}},{"type":"Feature","properties":{"zip_code":"10030","city":"New York","state":"NY","bbl":"1019390011","ec_name":"PS 92","address":"222 W 134 Street","borocode":"1","bin":"1058808","accessible":"N"},"geometry":{"type":"Point","coordinates":[-73.94581431348983,40.8147115976589]}},{"type":"Feature","properties":{"zip_code":"10031","city":"New York","state":"NY","bbl":"1020840129","ec_name":"PS - IS 210","address":"501-503 W 152 Street","borocode":"1","bin":"1087824","accessible":"N"},"geometry":{"type":"Point","coordinates":[-73.9446461562353,40.82999707805981]}},{"type":"Feature","properties":{"zip_code":"11355","city":"Flushing","state":"NY","bbl":"4050470001","ec_name":"PS 20","address":"142-30 Barclay Avenue","borocode":"4","bin":"4114657","accessible":"N"},"geometry":{"type":"Point","coordinates":[-73.82402972837741,40.758453450203675]}},{"type":"Feature","properties":{"zip_code":"11378","city":"Maspeth","state":"NY","bbl":"4028020001","ec_name":"PS 58","address":"72-24 Grand Avenue","borocode":"4","bin":"4062851","accessible":"Y"},"geometry":{"type":"Point","coordinates":[-73.89006273089697,40.728696727390556]}},{"type":"Feature","properties":{"zip_code":"11362","city":"Bayside","state":"NY","bbl":"4077230001","ec_name":"IS 74","address":"61-15 Oceania Street","borocode":"4","bin":"4163953","accessible":"N"},"geometry":{"type":"Point","coordinates":[-73.76682865353507,40.745078241808976]}},{"type":"Feature","properties":{"zip_code":"11101","city":"Long Island City","state":"NY","bbl":"4006390016","ec_name":"Frank Sinatra HS","address":"35-12 35Th Avenue","borocode":"4","bin":"4009594","accessible":"N"},"geometry":{"type":"Point","coordinates":[-73.92516451426961,40.75612679344865]}},{"type":"Feature","properties":{"zip_code":"10457","city":"Bronx","state":"NY","bbl":"2031430043","ec_name":"IS 391","address":"2225 Webster Avenue","borocode":"2","bin":"2013307","accessible":"Y"},"geometry":{"type":"Point","coordinates":[-73.89722928081869,40.854433752750495]}},{"type":"Feature","properties":{"zip_code":"10456","city":"Bronx","state":"NY","bbl":"2023900001","ec_name":"PS 132","address":"1245 Washington Avenue","borocode":"2","bin":"2001619","accessible":"N"},"geometry":{"type":"Point","coordinates":[-73.90699064822998,40.831893585490285]}},{"type":"Feature","properties":{"zip_code":"11208","city":"Brooklyn","state":"NY","bbl":"3041060039","ec_name":"PS 7","address":"858 Jamaica Avenue","borocode":"3","bin":"3090998","accessible":"N"},"geometry":{"type":"Point","coordinates":[-73.8731565648259,40.68917494755177]}},{"type":"Feature","properties":{"zip_code":"11201","city":"Brooklyn","state":"NY","bbl":"3001400010","ec_name":"Adams Street Educational Campus","address":"283 Adams Street","borocode":"3","bin":"3331741","accessible":"N"},"geometry":{"type":"Point","coordinates":[-73.98834759450574,40.69463226130131]}},{"type":"Feature","properties":{"zip_code":"11203","city":"Brooklyn","state":"NY","bbl":"3048060001","ec_name":"IS 391","address":"790 East New York Avenue","borocode":"3","bin":"3107129","accessible":"N"},"geometry":{"type":"Point","coordinates":[-73.93644096788611,40.66206795359305]}},{"type":"Feature","properties":{"zip_code":"11206","city":"Brooklyn","state":"NY","bbl":"3031530011","ec_name":"PS 145","address":"100 Noll Street","borocode":"3","bin":"3071915","accessible":"N"},"geometry":{"type":"Point","coordinates":[-73.93228484422491,40.701455732544524]}},{"type":"Feature","properties":{"zip_code":"11221","city":"Brooklyn","state":"NY","bbl":"3016360001","ec_name":"IS 324","address":"800 Gates Avenue","borocode":"3","bin":"3044657","accessible":"N"},"geometry":{"type":"Point","coordinates":[-73.93237354807005,40.68793814772119]}},{"type":"Feature","properties":{"zip_code":"11233","city":"Brooklyn","state":"NY","bbl":"3014480001","ec_name":"IS 55","address":"2021 Bergen Street","borocode":"3","bin":"3038939","accessible":"N"},"geometry":{"type":"Point","coordinates":[-73.9132600390299,40.67449093632245]}},{"type":"Feature","properties":{"zip_code":"11204","city":"Brooklyn","state":"NY","bbl":"3055510018","ec_name":"IS 227","address":"6500 16 Avenue","borocode":"3","bin":"3133741","accessible":"N"},"geometry":{"type":"Point","coordinates":[-73.99578336323263,40.62178403159182]}},{"type":"Feature","properties":{"zip_code":"11204","city":"Brooklyn","state":"NY","bbl":"3065490024","ec_name":"PS 226","address":"6006 23 Avenue","borocode":"3","bin":"3172071","accessible":"N"},"geometry":{"type":"Point","coordinates":[-73.97720245197735,40.615246661358086]}},{"type":"Feature","properties":{"zip_code":"11226","city":"Brooklyn","state":"NY","bbl":"3050500066","ec_name":"IS 2","address":"655 Parkside Avenue","borocode":"3","bin":"3378201","accessible":"N"},"geometry":{"type":"Point","coordinates":[-73.95147508866324,40.65641422300907]}},{"type":"Feature","properties":{"zip_code":"11368","city":"Corona","state":"NY","bbl":"4016080058","ec_name":"PS 207","address":"40-20 100 Street","borocode":"4","bin":"4040271","accessible":"N"},"geometry":{"type":"Point","coordinates":[-73.86582315889937,40.74931524379376]}},{"type":"Feature","properties":{"zip_code":"10314","city":"Staten Island","state":"NY","bbl":"5024500320","ec_name":"Jerome Parker Campus","address":"100 Essex Drive","borocode":"5","bin":"5149609","accessible":"Y"},"geometry":{"type":"Point","coordinates":[-74.15897931892695,40.581388990509105]}},{"type":"Feature","properties":{"zip_code":"10466","city":"Bronx","state":"NY","bbl":"2048640035","ec_name":"IS - HS 362","address":"921 E 228 Street","borocode":"2","bin":"2064589","accessible":"Y"},"geometry":{"type":"Point","coordinates":[-73.85266908917056,40.888220095065755]}},{"type":"Feature","properties":{"zip_code":"11209","city":"Brooklyn","state":"NY","bbl":"3058910048","ec_name":"PS - IS 30","address":"7002 4 Avenue","borocode":"3","bin":"3146550","accessible":"Y"},"geometry":{"type":"Point","coordinates":[-74.02453258829522,40.63345140169942]}},{"type":"Feature","properties":{"zip_code":"10003","city":"New York","state":"NY","bbl":"1008420034","ec_name":"Clinton School","address":"10 E 15 Street","borocode":"1","bin":"1016067","accessible":"N"},"geometry":{"type":"Point","coordinates":[-73.99235077956067,40.736110371584786]}},{"type":"Feature","properties":{"zip_code":"10301","city":"Staten Island","state":"NY","bbl":"5006830302","ec_name":"Petrides Complex","address":"715 Ocean Terrace","borocode":"5","bin":"5017080","accessible":"N"},"geometry":{"type":"Point","coordinates":[-74.10434506993518,40.60899601014512]}},{"type":"Feature","properties":{"zip_code":"10453","city":"Bronx","state":"NY","bbl":"2028620014","ec_name":"PS 306","address":"40 West Tremont Avenue","borocode":"2","bin":"2098721","accessible":"N"},"geometry":{"type":"Point","coordinates":[-73.91076904016273,40.85138734697534]}},{"type":"Feature","properties":{"zip_code":"10302","city":"Staten Island","state":"NY","bbl":"5014780500","ec_name":"IS 51","address":"20 Houston Street","borocode":"5","bin":"5107210","accessible":"N"},"geometry":{"type":"Point","coordinates":[-74.1448917169114,40.623017156185085]}},{"type":"Feature","properties":{"zip_code":"10452","city":"Bronx","state":"NY","bbl":"2024800008","ec_name":"PS - IS 218","address":"1220 Gerard Avenue","borocode":"2","bin":"2097130","accessible":"Y"},"geometry":{"type":"Point","coordinates":[-73.919664554437,40.83549265459259]}},{"type":"Feature","properties":{"zip_code":"11432","city":"Jamaica","state":"NY","bbl":"4097740001","ec_name":"Hillcrest HS","address":"160-05 Highland Avenue","borocode":"4","bin":"4448767","accessible":"N"},"geometry":{"type":"Point","coordinates":[-73.80266512114586,40.70965641897956]}},{"type":"Feature","properties":{"zip_code":"11101","city":"Long Island City","state":"NY","bbl":"4002260001","ec_name":"Aviation HS","address":"45-30 36 Street","borocode":"4","bin":"4436685","accessible":"N"},"geometry":{"type":"Point","coordinates":[-73.92945375815141,40.74349499260163]}},{"type":"Feature","properties":{"zip_code":"11385","city":"Ridgewood","state":"NY","bbl":"4033630001","ec_name":"Grover Cleveland HS","address":"21-27 Himrod Street","borocode":"4","bin":"4080227","accessible":"N"},"geometry":{"type":"Point","coordinates":[-73.90963486079305,40.71126606472361]}},{"type":"Feature","properties":{"zip_code":"11375","city":"Forest Hills","state":"NY","bbl":"4021890002","ec_name":"Forest Hills HS","address":"67-01 110 Street","borocode":"4","bin":"4052143","accessible":"N"},"geometry":{"type":"Point","coordinates":[-73.84476052923438,40.72978179399705]}},{"type":"Feature","properties":{"zip_code":"10451","city":"Bronx","state":"NY","bbl":"2024450006","ec_name":"HS of Law, Gov't and Justice","address":"244 E 163 Street","borocode":"2","bin":"2109459","accessible":"Y"},"geometry":{"type":"Point","coordinates":[-73.91902100546525,40.82747699295518]}},{"type":"Feature","properties":{"zip_code":"11367","city":"Flushing","state":"NY","bbl":"4065070200","ec_name":"Townsend Harris HS","address":"149-11 Melbourne Avenue","borocode":"4","bin":"4538714","accessible":"Y"},"geometry":{"type":"Point","coordinates":[-73.821357047386,40.73497558794615]}},{"type":"Feature","properties":{"zip_code":"11433","city":"Jamaica","state":"NY","bbl":"4102150001","ec_name":"PS - IS 268","address":"92-07 175 Street","borocode":"4","bin":"4217573","accessible":"Y"},"geometry":{"type":"Point","coordinates":[-73.78520179472864,40.7076654262842]}},{"type":"Feature","properties":{"zip_code":"11372","city":"Jackson Heights","state":"NY","bbl":"4012520001","ec_name":"IS 145","address":"33-34 80 Street","borocode":"4","bin":"4442764","accessible":"N"},"geometry":{"type":"Point","coordinates":[-73.88742394122187,40.754262411740015]}},{"type":"Feature","properties":{"zip_code":"11355","city":"Flushing","state":"NY","bbl":"4052610001","ec_name":"IS 25","address":"34-65 192 Street","borocode":"4","bin":"4119139","accessible":"N"},"geometry":{"type":"Point","coordinates":[-73.78970200437473,40.764987261857435]}},{"type":"Feature","properties":{"zip_code":"11426","city":"Bellerose","state":"NY","bbl":"4078700072","ec_name":"HS of Teaching, Lib Arts and Sci","address":"74-20 Commonwealth Blvd","borocode":"4","bin":"4529899","accessible":"Y"},"geometry":{"type":"Point","coordinates":[-73.7288655611345,40.74445728670098]}},{"type":"Feature","properties":{"zip_code":"11385","city":"Ridgewood","state":"NY","bbl":"4035610001","ec_name":"PS 239","address":"17-15 Weirfield Street","borocode":"4","bin":"4435561","accessible":"Y"},"geometry":{"type":"Point","coordinates":[-73.9041547375515,40.699182428130115]}},{"type":"Feature","properties":{"zip_code":"11420","city":"South Ozone Park","state":"NY","bbl":"4116230001","ec_name":"PS 100","address":"111-11 118 Street","borocode":"4","bin":"4250416","accessible":"N"},"geometry":{"type":"Point","coordinates":[-73.82133980529291,40.679760456715826]}},{"type":"Feature","properties":{"zip_code":"10468","city":"Bronx","state":"NY","bbl":"2032470070","ec_name":"Walton HS","address":"2780 Reservoir Avenue","borocode":"2","bin":"2015241","accessible":"N"},"geometry":{"type":"Point","coordinates":[-73.89704424213798,40.86993370687484]}},{"type":"Feature","properties":{"zip_code":"10456","city":"Bronx","state":"NY","bbl":"2026710011","ec_name":"IS 158","address":"800 Home Street","borocode":"2","bin":"2004868","accessible":"N"},"geometry":{"type":"Point","coordinates":[-73.90087575096457,40.82733480011778]}},{"type":"Feature","properties":{"zip_code":"10309","city":"Staten Island","state":"NY","bbl":"5070440001","ec_name":"PS 56","address":"250 Kramer Avenue","borocode":"5","bin":"5128148","accessible":"Y"},"geometry":{"type":"Point","coordinates":[-74.21396005256327,40.54198980345471]}},{"type":"Feature","properties":{"zip_code":"10301","city":"Staten Island","state":"NY","bbl":"5000190004","ec_name":"Ralph McKee HS","address":"290 St Marks Place","borocode":"5","bin":"5000314","accessible":"N"},"geometry":{"type":"Point","coordinates":[-74.07901917090253,40.64282884762186]}}]
}